[
  {
    "OBJECT_NAME": "STARLINK-1131",
    "OBJECT_ID": "20006D",
    "EPOCH": "2025-11-10T17:39:31.226112",
    "MEAN_MOTION": 15.06418875,
    "ECCENTRICITY": 0.0001427,
    "INCLINATION": 53.0535,
    "RA_OF_ASC_NODE": 101.1621,
    "ARG_OF_PERICENTER": 89.5174,
    "MEAN_ANOMALY": 270.5978,
    "EPHEMERIS_TYPE": 0,
    "CLASSIFICATION_TYPE": "U",
    "NORAD_CAT_ID": 45047,
    "ELEMENT_SET_NO": 999,
    "REV_AT_EPOCH": 31852,
    "BSTAR": 0.00022022,
    "MEAN_MOTION_DOT": 3.002e-05,
    "MEAN_MOTION_DDOT": 0.0,
    "TLE_LINE1": "1 45047U 20006D   25314.73577808  .00003002  00000+0  22022-3 0  9993",
    "TLE_LINE2": "2 45047  53.0535 101.1621 0001427  89.5174 270.5978 15.06418875318525",
    "COMMENT": "Grouped by shell and plane from TLE"
  },
  {
    "OBJECT_NAME": "STARLINK-1156",
    "OBJECT_ID": "20006L",
    "EPOCH": "2025-11-10T16:56:59.395200",
    "MEAN_MOTION": 15.0640347,
    "ECCENTRICITY": 0.0001427,
    "INCLINATION": 53.0539,
    "RA_OF_ASC_NODE": 100.7553,
    "ARG_OF_PERICENTER": 89.51,
    "MEAN_ANOMALY": 270.6052,
    "EPHEMERIS_TYPE": 0,
    "CLASSIFICATION_TYPE": "U",
    "NORAD_CAT_ID": 45054,
    "ELEMENT_SET_NO": 999,
    "REV_AT_EPOCH": 31852,
    "BSTAR": 0.00013672,
    "MEAN_MOTION_DOT": 1.756e-05,
    "MEAN_MOTION_DDOT": 0.0,
    "TLE_LINE1": "1 45054U 20006L   25314.70624300  .00001756  00000+0  13672-3 0  9993",
    "TLE_LINE2": "2 45054  53.0539 100.7553 0001427  89.5100 270.6052 15.06403470318524",
    "COMMENT": "Grouped by shell and plane from TLE"
  },
  {
    "OBJECT_NAME": "STARLINK-1169",
    "OBJECT_ID": "20006T",
    "EPOCH": "2025-11-10T09:47:03.369696",
    "MEAN_MOTION": 15.06406093,
    "ECCENTRICITY": 0.0001265,
    "INCLINATION": 53.054,
    "RA_OF_ASC_NODE": 102.0968,
    "ARG_OF_PERICENTER": 92.0892,
    "MEAN_ANOMALY": 268.0242,
    "EPHEMERIS_TYPE": 0,
    "CLASSIFICATION_TYPE": "U",
    "NORAD_CAT_ID": 45061,
    "ELEMENT_SET_NO": 999,
    "REV_AT_EPOCH": 31848,
    "BSTAR": 0.00014196,
    "MEAN_MOTION_DOT": 1.834e-05,
    "MEAN_MOTION_DDOT": 0.0,
    "TLE_LINE1": "1 45061U 20006T   25314.40767789  .00001834  00000+0  14196-3 0  9996",
    "TLE_LINE2": "2 45061  53.0540 102.0968 0001265  92.0892 268.0242 15.06406093318487",
    "COMMENT": "Grouped by shell and plane from TLE"
  },
  {
    "OBJECT_NAME": "STARLINK-1845",
    "OBJECT_ID": "20088P",
    "EPOCH": "2025-11-10T20:25:59.394432",
    "MEAN_MOTION": 15.06403176,
    "ECCENTRICITY": 0.000116,
    "INCLINATION": 53.0526,
    "RA_OF_ASC_NODE": 105.1036,
    "ARG_OF_PERICENTER": 76.2148,
    "MEAN_ANOMALY": 283.897,
    "EPHEMERIS_TYPE": 0,
    "CLASSIFICATION_TYPE": "U",
    "NORAD_CAT_ID": 47135,
    "ELEMENT_SET_NO": 999,
    "REV_AT_EPOCH": 27406,
    "BSTAR": 0.00021667,
    "MEAN_MOTION_DOT": 2.948e-05,
    "MEAN_MOTION_DDOT": 0.0,
    "TLE_LINE1": "1 47135U 20088P   25314.85138188  .00002948  00000+0  21667-3 0  9992",
    "TLE_LINE2": "2 47135  53.0526 105.1036 0001160  76.2148 283.8970 15.06403176274064",
    "COMMENT": "Grouped by shell and plane from TLE"
  },
  {
    "OBJECT_NAME": "STARLINK-1856",
    "OBJECT_ID": "20088X",
    "EPOCH": "2025-11-11T02:53:27.051072",
    "MEAN_MOTION": 15.06410304,
    "ECCENTRICITY": 9.99e-05,
    "INCLINATION": 53.0522,
    "RA_OF_ASC_NODE": 103.892,
    "ARG_OF_PERICENTER": 91.5153,
    "MEAN_ANOMALY": 268.595,
    "EPHEMERIS_TYPE": 0,
    "CLASSIFICATION_TYPE": "U",
    "NORAD_CAT_ID": 47143,
    "ELEMENT_SET_NO": 999,
    "REV_AT_EPOCH": 27410,
    "BSTAR": 0.0002032,
    "MEAN_MOTION_DOT": 2.747e-05,
    "MEAN_MOTION_DDOT": 0.0,
    "TLE_LINE1": "1 47143U 20088X   25315.12045198  .00002747  00000+0  20320-3 0  9992",
    "TLE_LINE2": "2 47143  53.0522 103.8920 0000999  91.5153 268.5950 15.06410304274105",
    "COMMENT": "Grouped by shell and plane from TLE"
  },
  {
    "OBJECT_NAME": "STARLINK-1873",
    "OBJECT_ID": "20088AN",
    "EPOCH": "2025-11-11T02:42:50.627808",
    "MEAN_MOTION": 15.06399674,
    "ECCENTRICITY": 0.0001492,
    "INCLINATION": 53.0526,
    "RA_OF_ASC_NODE": 103.9294,
    "ARG_OF_PERICENTER": 87.8292,
    "MEAN_ANOMALY": 272.2868,
    "EPHEMERIS_TYPE": 0,
    "CLASSIFICATION_TYPE": "U",
    "NORAD_CAT_ID": 47158,
    "ELEMENT_SET_NO": 999,
    "REV_AT_EPOCH": 27410,
    "BSTAR": 0.00017732999999999998,
    "MEAN_MOTION_DOT": 2.361e-05,
    "MEAN_MOTION_DDOT": 0.0,
    "TLE_LINE1": "1 47158U 20088AN  25315.11308597  .00002361  00000+0  17733-3 0  9998",
    "TLE_LINE2": "2 47158  53.0526 103.9294 0001492  87.8292 272.2868 15.06399674274107",
    "COMMENT": "Grouped by shell and plane from TLE"
  },
  {
    "OBJECT_NAME": "STARLINK-1876",
    "OBJECT_ID": "20088AR",
    "EPOCH": "2025-11-11T03:30:35.948160",
    "MEAN_MOTION": 15.0641591,
    "ECCENTRICITY": 0.0001163,
    "INCLINATION": 53.0553,
    "RA_OF_ASC_NODE": 103.776,
    "ARG_OF_PERICENTER": 99.5472,
    "MEAN_ANOMALY": 260.5649,
    "EPHEMERIS_TYPE": 0,
    "CLASSIFICATION_TYPE": "U",
    "NORAD_CAT_ID": 47161,
    "ELEMENT_SET_NO": 999,
    "REV_AT_EPOCH": 27411,
    "BSTAR": 0.0,
    "MEAN_MOTION_DOT": -1.73e-05,
    "MEAN_MOTION_DDOT": 0.0,
    "TLE_LINE1": "1 47161U 20088AR  25315.14624940 -.00001730  00000+0 -97263-4 0  9996",
    "TLE_LINE2": "2 47161  53.0553 103.7760 0001163  99.5472 260.5649 15.06415910274112",
    "COMMENT": "Grouped by shell and plane from TLE"
  },
  {
    "OBJECT_NAME": "STARLINK-1888",
    "OBJECT_ID": "20088BB",
    "EPOCH": "2025-11-11T03:46:31.471680",
    "MEAN_MOTION": 15.06394227,
    "ECCENTRICITY": 0.0001311,
    "INCLINATION": 53.0545,
    "RA_OF_ASC_NODE": 103.7321,
    "ARG_OF_PERICENTER": 89.4042,
    "MEAN_ANOMALY": 270.7098,
    "EPHEMERIS_TYPE": 0,
    "CLASSIFICATION_TYPE": "U",
    "NORAD_CAT_ID": 47171,
    "ELEMENT_SET_NO": 999,
    "REV_AT_EPOCH": 27411,
    "BSTAR": 0.0,
    "MEAN_MOTION_DOT": -4.04e-06,
    "MEAN_MOTION_DDOT": 0.0,
    "TLE_LINE1": "1 47171U 20088BB  25315.15730870 -.00000404  00000+0 -82108-5 0  9998",
    "TLE_LINE2": "2 47171  53.0545 103.7321 0001311  89.4042 270.7098 15.06394227274111",
    "COMMENT": "Grouped by shell and plane from TLE"
  },
  {
    "OBJECT_NAME": "STARLINK-2273",
    "OBJECT_ID": "21024S",
    "EPOCH": "2025-11-11T03:59:07.944288",
    "MEAN_MOTION": 15.06391227,
    "ECCENTRICITY": 4.51e-05,
    "INCLINATION": 53.0589,
    "RA_OF_ASC_NODE": 108.6917,
    "ARG_OF_PERICENTER": 34.3527,
    "MEAN_ANOMALY": 325.7491,
    "EPHEMERIS_TYPE": 0,
    "CLASSIFICATION_TYPE": "U",
    "NORAD_CAT_ID": 47993,
    "ELEMENT_SET_NO": 999,
    "REV_AT_EPOCH": 25725,
    "BSTAR": 6.4528e-05,
    "MEAN_MOTION_DOT": 6.8e-06,
    "MEAN_MOTION_DDOT": 0.0,
    "TLE_LINE1": "1 47993U 21024S   25315.16606417  .00000680  00000+0  64528-4 0  9990",
    "TLE_LINE2": "2 47993  53.0589 108.6917 0000451  34.3527 325.7491 15.06391227257258",
    "COMMENT": "Grouped by shell and plane from TLE"
  },
  {
    "OBJECT_NAME": "STARLINK-2505",
    "OBJECT_ID": "21038BL",
    "EPOCH": "2025-11-11T03:14:40.714080",
    "MEAN_MOTION": 15.06403538,
    "ECCENTRICITY": 0.0001373,
    "INCLINATION": 53.0545,
    "RA_OF_ASC_NODE": 103.8275,
    "ARG_OF_PERICENTER": 90.0545,
    "MEAN_ANOMALY": 270.0601,
    "EPHEMERIS_TYPE": 0,
    "CLASSIFICATION_TYPE": "U",
    "NORAD_CAT_ID": 48411,
    "ELEMENT_SET_NO": 999,
    "REV_AT_EPOCH": 25014,
    "BSTAR": 0.00012776,
    "MEAN_MOTION_DOT": 1.622e-05,
    "MEAN_MOTION_DDOT": 0.0,
    "TLE_LINE1": "1 48411U 21038BL  25315.13519345  .00001622  00000+0  12776-3 0  9995",
    "TLE_LINE2": "2 48411  53.0545 103.8275 0001373  90.0545 270.0601 15.06403538250148",
    "COMMENT": "Grouped by shell and plane from TLE"
  },
  {
    "OBJECT_NAME": "STARLINK-2581",
    "OBJECT_ID": "21038BM",
    "EPOCH": "2025-11-10T16:32:31.392672",
    "MEAN_MOTION": 15.06395127,
    "ECCENTRICITY": 0.000126,
    "INCLINATION": 53.0525,
    "RA_OF_ASC_NODE": 106.2671,
    "ARG_OF_PERICENTER": 86.8767,
    "MEAN_ANOMALY": 273.2366,
    "EPHEMERIS_TYPE": 0,
    "CLASSIFICATION_TYPE": "U",
    "NORAD_CAT_ID": 48412,
    "ELEMENT_SET_NO": 999,
    "REV_AT_EPOCH": 25007,
    "BSTAR": 0.00043357000000000004,
    "MEAN_MOTION_DOT": 6.182e-05,
    "MEAN_MOTION_DDOT": 0.0,
    "TLE_LINE1": "1 48412U 21038BM  25314.68925223  .00006182  00000+0  43357-3 0  9996",
    "TLE_LINE2": "2 48412  53.0525 106.2671 0001260  86.8767 273.2366 15.06395127250077",
    "COMMENT": "Grouped by shell and plane from TLE"
  },
  {
    "OBJECT_NAME": "STARLINK-3366",
    "OBJECT_ID": "22005A",
    "EPOCH": "2025-11-10T20:07:33.261024",
    "MEAN_MOTION": 15.08851057,
    "ECCENTRICITY": 0.0001006,
    "INCLINATION": 53.2189,
    "RA_OF_ASC_NODE": 102.6607,
    "ARG_OF_PERICENTER": 92.5827,
    "MEAN_ANOMALY": 267.528,
    "EPHEMERIS_TYPE": 0,
    "CLASSIFICATION_TYPE": "U",
    "NORAD_CAT_ID": 51104,
    "ELEMENT_SET_NO": 999,
    "REV_AT_EPOCH": 21093,
    "BSTAR": 0.00018043,
    "MEAN_MOTION_DOT": 2.586e-05,
    "MEAN_MOTION_DDOT": 0.0,
    "TLE_LINE1": "1 51104U 22005A   25314.83857941  .00002586  00000+0  18043-3 0  9999",
    "TLE_LINE2": "2 51104  53.2189 102.6607 0001006  92.5827 267.5280 15.08851057210938",
    "COMMENT": "Grouped by shell and plane from TLE"
  },
  {
    "OBJECT_NAME": "STARLINK-3350",
    "OBJECT_ID": "22005B",
    "EPOCH": "2025-11-11T03:27:25.189920",
    "MEAN_MOTION": 15.08843373,
    "ECCENTRICITY": 0.0001707,
    "INCLINATION": 53.2165,
    "RA_OF_ASC_NODE": 101.293,
    "ARG_OF_PERICENTER": 85.7289,
    "MEAN_ANOMALY": 274.3898,
    "EPHEMERIS_TYPE": 0,
    "CLASSIFICATION_TYPE": "U",
    "NORAD_CAT_ID": 51105,
    "ELEMENT_SET_NO": 999,
    "REV_AT_EPOCH": 21098,
    "BSTAR": 6.340000000000001e-05,
    "MEAN_MOTION_DOT": 7.21e-06,
    "MEAN_MOTION_DDOT": 0.0,
    "TLE_LINE1": "1 51105U 22005B   25315.14404155  .00000721  00000+0  63400-4 0  9997",
    "TLE_LINE2": "2 51105  53.2165 101.2930 0001707  85.7289 274.3898 15.08843373210989",
    "COMMENT": "Grouped by shell and plane from TLE"
  }
]